#cP2022 11 27  0  0  0.00000000      96 ORBIT IGS20 HLM  IGS
## 2238      0.00000000   900.00000000 59910 0.0000000000000
+   31   G01G02G03G04G05G06G07G08G09G10G11G12G13G14G15G16G17
+        G18G19G20G21G22G23G24G25G26G27G29G30G31G32  0  0  0
+          0  0  0  0  0  0  0  0  0  0  0  0  0  0  0  0  0
+          0  0  0  0  0  0  0  0  0  0  0  0  0  0  0  0  0
+          0  0  0  0  0  0  0  0  0  0  0  0  0  0  0  0  0
++         2  2  2  2  3  3  3  2  2  2  3  3  2  3  3  3  2
++         3  3  2  3  2  3  2  3  3  2  3  2  3  3  0  0  0
++         0  0  0  0  0  0  0  0  0  0  0  0  0  0  0  0  0
++         0  0  0  0  0  0  0  0  0  0  0  0  0  0  0  0  0
++         0  0  0  0  0  0  0  0  0  0  0  0  0  0  0  0  0
%c G  cc GPS ccc cccc cccc cccc cccc ccccc ccccc ccccc ccccc
%c cc cc ccc ccc cccc cccc cccc cccc ccccc ccccc ccccc ccccc
%f  1.2500000  1.025000000  0.00000000000  0.000000000000000
%f  0.0000000  0.000000000  0.00000000000  0.000000000000000
%i    0    0    0    0      0      0      0      0         0
%i    0    0    0    0      0      0      0      0         0
/* RAPID ORBIT COMBINATION FROM WEIGHTED AVERAGE OF:        
/* cod emr esa gfz grg usn whu                              
/* REFERENCED TO IGS TIME (IGST) AND TO WEIGHTED MEAN POLE: 
/* PCV:IGS20_2233 OL/AL:FES2014b NONE     Y  ORB:CMB CLK:CMB
*  2022 11 27 23 15  0.00000000
PG01   8192.532394 -18747.938826 -17051.521766    245.509477  4  5  9 130       
PG02  -4184.081134  19488.022934  18286.432232   -635.813421  4  3  3 119       
PG03   -823.164364 -16270.770914 -21122.929257   -374.487595 10 10  9 125       
PG04    985.060005 -26337.590823  -2790.269556    -78.738360  8  3  7 137       
PG05 -13361.836809   9808.132509  20605.399008   -105.951804  8  9  2 116       
PG06 -22003.803761   3144.416820 -14529.596562    528.283410  6  9  7 120       
PG07  -7647.785586 -13670.312489  21853.220203    281.948140  2  6  8 126       
PG08   7165.964228 -21702.688280  13164.241632    -95.921880  5  5  6 139       
PG09  -7907.138962 -24004.040415   8014.331577   -262.138671  8  7  9 136       
PG10  24131.505212  11501.981871   -219.943917    -13.723317  6  7  5 119       
PG11 -23669.732960  11525.059236  -3355.256028    -46.888719 11  6  5 110       
PG12  -1231.716422  16218.058806 -21288.049112   -309.365367 11  1  8  94       
PG13 -12874.318287  15268.173454  17239.037664    432.286127  5  9  8  78       
PG14 -22953.688345 -13402.893089   1533.651505    -76.859730 13 11 11 126       
PG15  -4602.065315  22709.198527  12278.885815     -8.776482  7 10 10  94       
PG16  18167.382228  -4198.881865  18808.461132   -526.723125 12  6    119       
PG17 -12387.587276 -14335.931332 -18138.849829    681.504456  6  7  9 120       
PG18   9121.253261  11888.472621  21934.787386    -38.072735  9  7  8 121       
PG19 -14897.185855  -2386.566168 -22102.715483    243.131608 10  6  8 135       
PG20 -22894.076555   2925.556894  12961.045374    467.217093  9  6  4 104       
PG21  14863.404617 -19544.248242  -8465.481614    155.114153  7  6 10  34       
PG22  14991.423620  -1232.026686 -21462.969995    373.388476  8 12  4  95       
PG23  18700.414374  16026.462274  10120.636222     -0.670584 11  7  3  97       
PG24 -10330.455659  20689.338918 -13018.612972     40.466181  8  8  8  89       
PG25  10466.784087  18125.429233 -16809.932568    396.798204  5  7  7  98       
PG26  24617.248346   2109.260018  10080.641443    237.016087 10  9  7 134       
PG27  12834.800935 -11457.256673  19897.305220    167.646470  8  9  5 129       
PG29   4280.229780  25328.404527   6542.830065   -570.199213     8  7 116       
PG30 -18113.863036  -4844.434621  18993.150456   -536.216463  3  4  3  99       
PG31  23084.226835  -3751.599604 -13171.057419   -201.547697 11  8     99       
PG32  14502.943137  10808.302291 -19364.616775   -310.691474  3 13  8 120       
*  2022 11 27 23 30  0.00000000
PG01   9734.274074 -19668.347636 -15018.575714    245.504572  5  4 10 137       
PG02  -5687.006642  20612.633860  16516.445522   -635.811876  5  3  3 119       
PG03   1406.225488 -15321.367762 -21786.246050   -374.488731 10 11  9 113       
PG04   1274.347531 -25874.831477  -5600.012223    -78.732183  9  5  8 139       
PG05 -15493.173996   8868.393899  19530.116055   -105.952909  9  9  4 108       
PG06 -20622.838411   2008.190242 -16593.180310    528.291158  6  9  6 110       
PG07  -5670.322457 -15030.674647  21510.307107    281.943884  3  7  8 110       
PG08   7590.590566 -20093.124024  15331.641946    -95.923436  4  6  6 120       
PG09  -7741.260839 -24804.076151   5306.454588   -262.133420  8  6  9 130       
PG10  23946.684112  11623.193720   2643.604322    -13.724715  7  6  5 116       
PG11 -23343.713412  11025.446824  -6151.336213    -46.894657 12  5  5 100       
PG12  -3374.610736  15119.471461 -21855.246897   -309.369388 10  3  9 112       
PG13 -12948.675686  13163.418917  18845.144631    432.292156  4  9  9 104       
PG14 -22533.812984 -13500.495911   4336.689617    -76.854628 12 11 12 126       
PG15  -5266.432117  21210.756832  14449.894515     -8.773631  9 11 10 102       
PG16  19942.207846  -3076.404556  17224.337302   -526.722744 12  6  4 125       
PG17 -12329.738616 -16393.854123 -16385.989047    681.506942  5  6  9 117       
PG18   7061.099762  13309.377888  21865.978392    -38.085544  8  7  7 113       
PG19 -14873.720360  -4838.215086 -21733.345781    243.136124 10  7  8 142       
PG20 -24137.721760   2326.913844  10586.677679    467.215118  9  5  5 120       
PG21  15748.155117 -19899.540865  -5726.600117    155.113189  8  5 10  77       
PG22  15048.161188   1312.721774 -21434.774946    373.395774  9 12  6 107       
PG23  17435.078147  15702.562337  12574.641260     -0.670235 11  7  3  90       
PG24 -11530.367010  21331.680296 -10667.111280     40.451247  8  8  9 101       
PG25   8615.989468  17470.941718 -18474.905900    396.801423  5  5  8 113       
PG26  25471.814429   2722.209412   7542.228909    237.017253 11  9  7 150       
PG27  13186.301036  -9095.477696  20888.318734    167.637932  7 10  7 130       
PG29   4091.542533  25926.625539   3727.384448   -570.201687  5  9  6 118       
PG30 -16367.040002  -6223.422555  20124.990767   -536.216000  5  4  1  99       
PG31  21874.841915  -2704.853743 -15301.365276   -201.548820 11  7    107       
PG32  14618.754425  12965.617189 -17928.495120   -310.703011  1 13  9 109       
*  2022 11 27 23 45  0.00000000
PG01  11034.108987 -20522.462372 -12728.136154    245.499658  6  3 10 137       
PG02  -6977.729527  21672.113740  14476.442053   -635.810175  5  3  4 112       
PG03   3735.635692 -14476.833214 -22079.353025   -374.489868 10 11  9 118       
PG04   1627.245199 -25116.898823  -8312.767858    -78.725982  9  6  9 138       
PG05 -17534.355092   8086.497143  18114.926641   -105.953837 10  9  6 114       
PG06 -19138.128189    657.607544 -18370.740906    528.298899  5  9  5  94       
PG07  -3805.875564 -16457.429317  20808.983389    281.939403     6  8 102       
PG08   8139.431163 -18281.016338  17230.070895    -95.925609  3  8  6 113       
PG09  -7560.136384 -25304.267527   2506.824258   -262.128151  8  6 10 127       
PG10  23470.079119  11641.802546   5462.623285    -13.725679  8  5  5 112       
PG11 -22793.751904  10325.245641  -8841.292412    -46.900626 12  4  6  97       
PG12  -5613.245770  14120.023228 -22055.906820   -309.373230  9  5 10 115       
PG13 -13138.151189  10901.263855  20120.425910    432.298431  4  9  9 108       
PG14 -21831.659553 -13498.942126   7065.617166    -76.849565 11 10 12 121       
PG15  -6068.563158  19519.239004  16361.843777     -8.770420 10 11 10  88       
PG16  21593.457845  -2139.111654  15342.767716   -526.722678 12  7  3 123       
PG17 -12361.028790 -18231.646564 -14341.183528    681.510091  6  6 10 122       
PG18   5102.423760  14822.224159  21420.677631    -38.098362  7  8  5 112       
PG19 -14982.065053  -7223.765044 -20998.976967    243.140730 10  7  8 140       
PG20 -25135.545425   1845.050999   8028.037974    467.212601  9  5  6 117       
PG21  16377.046199 -20075.034779  -2882.801854    155.112656  9  5  9  68       
PG22  15232.558568   3823.790783 -21023.369964    373.402861  9 12  7  88       
PG23  15902.665844  15361.366645  14813.707809     -0.669859 10  7  3  97       
PG24 -12504.094021  21838.194651  -8130.621012     40.436303  6  8 10  73       
PG25   6575.085490  16855.924912 -19832.031357    396.804666  6  4  8 101       
PG26  26076.078408   3204.848573   4876.073959    237.018440 11 10  7 152       
PG27  13676.021416  -6667.139141  21510.162991    167.629388  8 11  8 121       
PG29   3907.601435  26211.596197    847.425314   -570.204052  7  9  7 114       
PG30 -14603.549694  -7754.054123  20915.018137   -536.215533  7  3  1  93       
PG31  20544.739017  -1457.642720 -17176.239829   -201.549874 11  8    112       
PG32  14815.542195  14933.753684 -16182.399735   -310.714595    12 10 116       
EOF
